{
  "norad_id": 68913,
  "name": "STARLINK-37504",
  "history": [
    {
      "epoch": "2026-05-04T18:00:02.000160Z",
      "apogee_km": 275.94817591556057,
      "perigee_km": 274.0107883959572,
      "latitude_deg": -62.76451561741715,
      "longitude_deg": -7.263620527208077,
      "height_km": 299.87955997428304,
      "semi_major_axis_km": 6653.116482155759,
      "eccentricity": 0.0001456,
      "inclination_deg": 97.2863,
      "raan_deg": 319.68,
      "arg_perigee_deg": 99.7728,
      "mean_anomaly_deg": 143.6853,
      "mean_motion_rev_day": 15.99797712
    }
  ]
}