{"generatedAt":"2026-05-05T08:19:47.084492Z","satellites":[{"name":"STARLINK-37504","tle1":"1 68913U 26097U   26124.75002315 -.02109405  13160-2 -42573-2 0  9998","tle2":"2 68913  97.2863 319.6800 0001456  99.7728 143.6853 15.99797712  1928"}]}